[{"OBJECT_NAME":"EGYPTSAT-A (MISRSAT-A)","OBJECT_ID":"2019-008A","EPOCH":"2026-03-09T23:42:01.937952","MEAN_MOTION":14.72293505,"ECCENTRICITY":0.00010879,"INCLINATION":98.0143,"RA_OF_ASC_NODE":135.2007,"ARG_OF_PERICENTER":85.2157,"MEAN_ANOMALY":274.9175,"EPHEMERIS_TYPE":0,"CLASSIFICATION_TYPE":"U","NORAD_CAT_ID":44047,"ELEMENT_SET_NO":999,"REV_AT_EPOCH":37864,"BSTAR":9.9362666e-5,"MEAN_MOTION_DOT":5.78e-6,"MEAN_MOTION_DDOT":0},{"OBJECT_NAME":"SL-16 DEB","OBJECT_ID":"1993-016BL","EPOCH":"2026-03-05T18:01:22.151712","MEAN_MOTION":14.78182986,"ECCENTRICITY":0.0045093,"INCLINATION":71.0094,"RA_OF_ASC_NODE":189.5331,"ARG_OF_PERICENTER":24.0544,"MEAN_ANOMALY":336.2703,"EPHEMERIS_TYPE":0,"CLASSIFICATION_TYPE":"U","NORAD_CAT_ID":39886,"ELEMENT_SET_NO":999,"REV_AT_EPOCH":62700,"BSTAR":0.0010794813,"MEAN_MOTION_DOT":7.906e-5,"MEAN_MOTION_DDOT":0}]
